{
  "type": "FeatureCollection",
  "features": [
    {
      "type": "Feature",
      "properties": {
        "norad_id": 41581,
        "name": "INTELSAT 31 (IS-31)",
        "group": "intelsat",
        "lat": -0.002164488214449195,
        "lon": 144.44381908461995,
        "alt_km": 35781.66249378785,
        "timestamp": "2025-12-23T09:49:06.744184+00:00",
        "meta_object_name": "INTELSAT 31 (IS-31)",
        "meta_object_id": "2016-035A",
        "meta_epoch": "2025-12-22T11:00:05.552640",
        "meta_mean_motion": 1.0028394,
        "meta_eccentricity": 0.00017304,
        "meta_inclination": 0.0313,
        "meta_ra_of_asc_node": 263.1779,
        "meta_arg_of_pericenter": 322.7046,
        "meta_mean_anomaly": 295.354,
        "meta_ephemeris_type": 0,
        "meta_classification_type": "U",
        "meta_norad_cat_id": 41581,
        "meta_element_set_no": 999,
        "meta_rev_at_epoch": 3491,
        "meta_bstar": 0,
        "meta_mean_motion_dot": -1.31e-06,
        "meta_mean_motion_ddot": 0,
        "tle_line1": "1 41581U 16035A   25356.45839760 -.00000131  00000+0  00000+0 0  9991",
        "tle_line2": "2 41581   0.0313 263.1779 0001730 322.7046 295.3540  1.00283940 34910"
      },
      "geometry": {
        "type": "Point",
        "coordinates": [
          144.44381908461995,
          -0.002164488214449195
        ]
      }
    },
    {
      "type": "Feature",
      "properties": {
        "norad_id": 41747,
        "name": "INTELSAT 36 (IS-36)",
        "group": "intelsat",
        "lat": -0.028662577919019598,
        "lon": -52.037879669652924,
        "alt_km": 35782.16349586551,
        "timestamp": "2025-12-23T09:49:06.744196+00:00",
        "meta_object_name": "INTELSAT 36 (IS-36)",
        "meta_object_id": "2016-053A",
        "meta_epoch": "2025-12-22T13:29:30.047712",
        "meta_mean_motion": 1.0027117,
        "meta_eccentricity": 0.00010206,
        "meta_inclination": 0.0105,
        "meta_ra_of_asc_node": 0.216,
        "meta_arg_of_pericenter": 326.742,
        "meta_mean_anomaly": 35.2784,
        "meta_ephemeris_type": 0,
        "meta_classification_type": "U",
        "meta_norad_cat_id": 41747,
        "meta_element_set_no": 999,
        "meta_rev_at_epoch": 3417,
        "meta_bstar": 0,
        "meta_mean_motion_dot": -3e-08,
        "meta_mean_motion_ddot": 0,
        "tle_line1": "1 41747U 16053A   25356.56215333 -.00000003  00000+0  00000+0 0  9999",
        "tle_line2": "2 41747   0.0105   0.2160 0001020 326.7420  35.2784  1.00271170 34170"
      },
      "geometry": {
        "type": "Point",
        "coordinates": [
          -52.037879669652924,
          -0.028662577919019598
        ]
      }
    },
    {
      "type": "Feature",
      "properties": {
        "norad_id": 41945,
        "name": "INTELSAT 32E (IS-32E)",
        "group": "intelsat",
        "lat": 0.01859288227941742,
        "lon": -163.70005173313945,
        "alt_km": 35787.576082404674,
        "timestamp": "2025-12-23T09:49:06.744208+00:00",
        "meta_object_name": "INTELSAT 32E (IS-32E)",
        "meta_object_id": "2017-007B",
        "meta_epoch": "2025-12-22T11:14:34.167264",
        "meta_mean_motion": 1.00270563,
        "meta_eccentricity": 3.75e-05,
        "meta_inclination": 0.0236,
        "meta_ra_of_asc_node": 67.3909,
        "meta_arg_of_pericenter": 356.8656,
        "meta_mean_anomaly": 152.4885,
        "meta_ephemeris_type": 0,
        "meta_classification_type": "U",
        "meta_norad_cat_id": 41945,
        "meta_element_set_no": 999,
        "meta_rev_at_epoch": 3245,
        "meta_bstar": 0,
        "meta_mean_motion_dot": -2.47e-06,
        "meta_mean_motion_ddot": 0,
        "tle_line1": "1 41945U 17007B   25356.46845101 -.00000247  00000+0  00000+0 0  9990",
        "tle_line2": "2 41945   0.0236  67.3909 0000375 356.8656 152.4885  1.00270563 32455"
      },
      "geometry": {
        "type": "Point",
        "coordinates": [
          -163.70005173313945,
          0.01859288227941742
        ]
      }
    },
    {
      "type": "Feature",
      "properties": {
        "norad_id": 42818,
        "name": "INTELSAT 35E (IS-35E)",
        "group": "intelsat",
        "lat": -0.008768595402838187,
        "lon": -155.06507324790638,
        "alt_km": 35785.13727926727,
        "timestamp": "2025-12-23T09:49:06.744219+00:00",
        "meta_object_name": "INTELSAT 35E (IS-35E)",
        "meta_object_id": "2017-041A",
        "meta_epoch": "2025-12-22T11:17:18.904416",
        "meta_mean_motion": 1.00267679,
        "meta_eccentricity": 0.00019503,
        "meta_inclination": 0.0219,
        "meta_ra_of_asc_node": 17.0294,
        "meta_arg_of_pericenter": 262.6673,
        "meta_mean_anomaly": 306.4061,
        "meta_ephemeris_type": 0,
        "meta_classification_type": "U",
        "meta_norad_cat_id": 42818,
        "meta_element_set_no": 999,
        "meta_rev_at_epoch": 3104,
        "meta_bstar": 0,
        "meta_mean_motion_dot": 0,
        "meta_mean_motion_ddot": 0,
        "tle_line1": "1 42818U 17041A   25356.47035769  .00000000  00000+0  00000+0 0  9996",
        "tle_line2": "2 42818   0.0219  17.0294 0001950 262.6673 306.4061  1.00267679 31043"
      },
      "geometry": {
        "type": "Point",
        "coordinates": [
          -155.06507324790638,
          -0.008768595402838187
        ]
      }
    },
    {
      "type": "Feature",
      "properties": {
        "norad_id": 42950,
        "name": "INTELSAT 37E (IS-37E)",
        "group": "intelsat",
        "lat": -0.025069888616214037,
        "lon": -138.55584833478403,
        "alt_km": 35777.03329864156,
        "timestamp": "2025-12-23T09:49:06.744231+00:00",
        "meta_object_name": "INTELSAT 37E (IS-37E)",
        "meta_object_id": "2017-059A",
        "meta_epoch": "2025-12-22T18:12:55.408896",
        "meta_mean_motion": 1.00270182,
        "meta_eccentricity": 0.00029493,
        "meta_inclination": 0.0212,
        "meta_ra_of_asc_node": 8.1541,
        "meta_arg_of_pericenter": 253.4884,
        "meta_mean_anomaly": 85.146,
        "meta_ephemeris_type": 0,
        "meta_classification_type": "U",
        "meta_norad_cat_id": 42950,
        "meta_element_set_no": 999,
        "meta_rev_at_epoch": 3029,
        "meta_bstar": 0,
        "meta_mean_motion_dot": 0,
        "meta_mean_motion_ddot": 0,
        "tle_line1": "1 42950U 17059A   25356.75897464  .00000000  00000+0  00000+0 0  9991",
        "tle_line2": "2 42950   0.0212   8.1541 0002949 253.4884  85.1460  1.00270182 30293"
      },
      "geometry": {
        "type": "Point",
        "coordinates": [
          -138.55584833478403,
          -0.025069888616214037
        ]
      }
    },
    {
      "type": "Feature",
      "properties": {
        "norad_id": 43632,
        "name": "AZERSPACE 2 (IS-38)",
        "group": "intelsat",
        "lat": -0.01925813883148967,
        "lon": -75.41744334540815,
        "alt_km": 35781.4597192297,
        "timestamp": "2025-12-23T09:49:06.744243+00:00",
        "meta_object_name": "AZERSPACE 2 (IS-38)",
        "meta_object_id": "2018-074A",
        "meta_epoch": "2025-12-22T11:40:01.728768",
        "meta_mean_motion": 1.00269966,
        "meta_eccentricity": 0.00012119,
        "meta_inclination": 0.0009,
        "meta_ra_of_asc_node": 54.2649,
        "meta_arg_of_pericenter": 218.3873,
        "meta_mean_anomaly": 38.7587,
        "meta_ephemeris_type": 0,
        "meta_classification_type": "U",
        "meta_norad_cat_id": 43632,
        "meta_element_set_no": 999,
        "meta_rev_at_epoch": 2667,
        "meta_bstar": 0,
        "meta_mean_motion_dot": 1.58e-06,
        "meta_mean_motion_ddot": 0,
        "tle_line1": "1 43632U 18074A   25356.48613112  .00000158  00000+0  00000+0 0  9997",
        "tle_line2": "2 43632   0.0009  54.2649 0001211 218.3873  38.7587  1.00269966 26674"
      },
      "geometry": {
        "type": "Point",
        "coordinates": [
          -75.41744334540815,
          -0.01925813883148967
        ]
      }
    },
    {
      "type": "Feature",
      "properties": {
        "norad_id": 43633,
        "name": "HORIZONS-3E",
        "group": "intelsat",
        "lat": -0.00649396288450778,
        "lon": 48.45755394425017,
        "alt_km": 35786.372904722004,
        "timestamp": "2025-12-23T09:49:06.744256+00:00",
        "meta_object_name": "HORIZONS-3E",
        "meta_object_id": "2018-074B",
        "meta_epoch": "2025-12-22T10:32:38.181984",
        "meta_mean_motion": 1.00269678,
        "meta_eccentricity": 6.708e-05,
        "meta_inclination": 0.01,
        "meta_ra_of_asc_node": 217.192,
        "meta_arg_of_pericenter": 107.0412,
        "meta_mean_anomaly": 94.1555,
        "meta_ephemeris_type": 0,
        "meta_classification_type": "U",
        "meta_norad_cat_id": 43633,
        "meta_element_set_no": 999,
        "meta_rev_at_epoch": 2656,
        "meta_bstar": 0,
        "meta_mean_motion_dot": 0,
        "meta_mean_motion_ddot": 0,
        "tle_line1": "1 43633U 18074B   25356.43933081  .00000000  00000+0  00000+0 0  9999",
        "tle_line2": "2 43633   0.0100 217.1920 0000670 107.0412  94.1555  1.00269678 26569"
      },
      "geometry": {
        "type": "Point",
        "coordinates": [
          48.45755394425017,
          -0.00649396288450778
        ]
      }
    }
  ]
}